{
  "type": "FeatureCollection",
  "features": [
    {
      "type": "Feature",
      "properties": {
        "norad_id": 15362,
        "name": "NOVA 3",
        "group": "nnss",
        "lat": 8.937275195694957,
        "lon": 80.54409163807438,
        "alt_km": 1158.2451185890814,
        "timestamp": "2025-12-15T04:01:20.720011+00:00",
        "meta_object_name": "NOVA 3",
        "meta_object_id": "1984-110A",
        "meta_epoch": "2025-12-14T08:21:34.803936",
        "meta_mean_motion": 13.23044732,
        "meta_eccentricity": 0.00303882,
        "meta_inclination": 90.1223,
        "meta_ra_of_asc_node": 80.5537,
        "meta_arg_of_pericenter": 327.326,
        "meta_mean_anomaly": 101.5341,
        "meta_ephemeris_type": 0,
        "meta_classification_type": "U",
        "meta_norad_cat_id": 15362,
        "meta_element_set_no": 999,
        "meta_rev_at_epoch": 98720,
        "meta_bstar": 9.0449523e-05,
        "meta_mean_motion_dot": 4.6e-07,
        "meta_mean_motion_ddot": 0,
        "tle_line1": "1 15362U 84110A   25348.34831949  .00000046  00000+0  90450-4 0  9995",
        "tle_line2": "2 15362  90.1223  80.5537 0030388 327.3260 101.5341 13.23044732987209"
      },
      "geometry": {
        "type": "Point",
        "coordinates": [
          80.54409163807438,
          8.937275195694957
        ]
      }
    },
    {
      "type": "Feature",
      "properties": {
        "norad_id": 15935,
        "name": "OSCAR 30",
        "group": "nnss",
        "lat": -24.99333066139291,
        "lon": -80.19045368246026,
        "alt_km": 1206.0029023578918,
        "timestamp": "2025-12-15T04:01:20.720022+00:00",
        "meta_object_name": "OSCAR 30",
        "meta_object_id": "1985-066A",
        "meta_epoch": "2025-12-14T07:30:23.949216",
        "meta_mean_motion": 13.36078547,
        "meta_eccentricity": 0.01693786,
        "meta_inclination": 90.1652,
        "meta_ra_of_asc_node": 99.8727,
        "meta_arg_of_pericenter": 79.5155,
        "meta_mean_anomaly": 334.6355,
        "meta_ephemeris_type": 0,
        "meta_classification_type": "U",
        "meta_norad_cat_id": 15935,
        "meta_element_set_no": 999,
        "meta_rev_at_epoch": 96474,
        "meta_bstar": 0.0001432461,
        "meta_mean_motion_dot": 9e-07,
        "meta_mean_motion_ddot": 0,
        "tle_line1": "1 15935U 85066A   25348.31277719  .00000090  00000+0  14325-3 0  9993",
        "tle_line2": "2 15935  90.1652  99.8727 0169378  79.5155 334.6355 13.36078547964749"
      },
      "geometry": {
        "type": "Point",
        "coordinates": [
          -80.19045368246026,
          -24.99333066139291
        ]
      }
    },
    {
      "type": "Feature",
      "properties": {
        "norad_id": 15936,
        "name": "OSCAR 24",
        "group": "nnss",
        "lat": -83.03516980830841,
        "lon": 93.81545746557832,
        "alt_km": 1256.228531944852,
        "timestamp": "2025-12-15T04:01:20.720033+00:00",
        "meta_object_name": "OSCAR 24",
        "meta_object_id": "1985-066B",
        "meta_epoch": "2025-12-14T07:08:17.811168",
        "meta_mean_motion": 13.35936049,
        "meta_eccentricity": 0.01704655,
        "meta_inclination": 90.1791,
        "meta_ra_of_asc_node": 92.333,
        "meta_arg_of_pericenter": 85.9929,
        "meta_mean_anomaly": 328.9185,
        "meta_ephemeris_type": 0,
        "meta_classification_type": "U",
        "meta_norad_cat_id": 15936,
        "meta_element_set_no": 999,
        "meta_rev_at_epoch": 96664,
        "meta_bstar": 0.00013635504,
        "meta_mean_motion_dot": 8.6e-07,
        "meta_mean_motion_ddot": 0,
        "tle_line1": "1 15936U 85066B   25348.29742837  .00000086  00000+0  13636-3 0  9998",
        "tle_line2": "2 15936  90.1791  92.3330 0170465  85.9929 328.9185 13.35936049966648"
      },
      "geometry": {
        "type": "Point",
        "coordinates": [
          93.81545746557832,
          -83.03516980830841
        ]
      }
    },
    {
      "type": "Feature",
      "properties": {
        "norad_id": 17070,
        "name": "POLAR BEAR",
        "group": "nnss",
        "lat": 83.48184035117312,
        "lon": 0.32287393185365837,
        "alt_km": 944.2702357802436,
        "timestamp": "2025-12-15T04:01:20.720059+00:00",
        "meta_object_name": "POLAR BEAR",
        "meta_object_id": "1986-088A",
        "meta_epoch": "2025-12-14T07:26:29.336064",
        "meta_mean_motion": 13.75251027,
        "meta_eccentricity": 0.00410614,
        "meta_inclination": 89.6173,
        "meta_ra_of_asc_node": 183.7109,
        "meta_arg_of_pericenter": 114.6975,
        "meta_mean_anomaly": 58.9174,
        "meta_ephemeris_type": 0,
        "meta_classification_type": "U",
        "meta_norad_cat_id": 17070,
        "meta_element_set_no": 999,
        "meta_rev_at_epoch": 96000,
        "meta_bstar": 0.00013053154,
        "meta_mean_motion_dot": 1.37e-06,
        "meta_mean_motion_ddot": 0,
        "tle_line1": "1 17070U 86088A   25348.31006176  .00000137  00000+0  13053-3 0  9996",
        "tle_line2": "2 17070  89.6173 183.7109 0041061 114.6975  58.9174 13.75251027960007"
      },
      "geometry": {
        "type": "Point",
        "coordinates": [
          0.32287393185365837,
          83.48184035117312
        ]
      }
    },
    {
      "type": "Feature",
      "properties": {
        "norad_id": 18361,
        "name": "OSCAR 27",
        "group": "nnss",
        "lat": 88.24845695476667,
        "lon": 67.02039567128558,
        "alt_km": 1131.0284268098849,
        "timestamp": "2025-12-15T04:01:20.720071+00:00",
        "meta_object_name": "OSCAR 27",
        "meta_object_id": "1987-080A",
        "meta_epoch": "2025-12-14T07:56:07.867968",
        "meta_mean_motion": 13.44907033,
        "meta_eccentricity": 0.01030321,
        "meta_inclination": 90.3743,
        "meta_ra_of_asc_node": 79.3319,
        "meta_arg_of_pericenter": 219.2068,
        "meta_mean_anomaly": 140.1585,
        "meta_ephemeris_type": 0,
        "meta_classification_type": "U",
        "meta_norad_cat_id": 18361,
        "meta_element_set_no": 999,
        "meta_rev_at_epoch": 87578,
        "meta_bstar": 0.00018538473,
        "meta_mean_motion_dot": 1.2e-06,
        "meta_mean_motion_ddot": 0,
        "tle_line1": "1 18361U 87080A   25348.33064662  .00000120  00000+0  18538-3 0  9994",
        "tle_line2": "2 18361  90.3743  79.3319 0103032 219.2068 140.1585 13.44907033875789"
      },
      "geometry": {
        "type": "Point",
        "coordinates": [
          67.02039567128558,
          88.24845695476667
        ]
      }
    },
    {
      "type": "Feature",
      "properties": {
        "norad_id": 18362,
        "name": "OSCAR 29",
        "group": "nnss",
        "lat": 83.2776072790983,
        "lon": -96.99018022342453,
        "alt_km": 1147.5131942089984,
        "timestamp": "2025-12-15T04:01:20.720082+00:00",
        "meta_object_name": "OSCAR 29",
        "meta_object_id": "1987-080B",
        "meta_epoch": "2025-12-14T08:13:44.252256",
        "meta_mean_motion": 13.44448674,
        "meta_eccentricity": 0.01040087,
        "meta_inclination": 90.3753,
        "meta_ra_of_asc_node": 79.7913,
        "meta_arg_of_pericenter": 242.5136,
        "meta_mean_anomaly": 185.567,
        "meta_ephemeris_type": 0,
        "meta_classification_type": "U",
        "meta_norad_cat_id": 18362,
        "meta_element_set_no": 999,
        "meta_rev_at_epoch": 87531,
        "meta_bstar": 0.00016058983,
        "meta_mean_motion_dot": 1.04e-06,
        "meta_mean_motion_ddot": 0,
        "tle_line1": "1 18362U 87080B   25348.34287329  .00000104  00000+0  16059-3 0  9991",
        "tle_line2": "2 18362  90.3753  79.7913 0104008 242.5136 185.5670 13.44448674875312"
      },
      "geometry": {
        "type": "Point",
        "coordinates": [
          -96.99018022342453,
          83.2776072790983
        ]
      }
    },
    {
      "type": "Feature",
      "properties": {
        "norad_id": 19070,
        "name": "OSCAR 23",
        "group": "nnss",
        "lat": 85.15773620467806,
        "lon": 12.670402982657354,
        "alt_km": 1139.9850913756663,
        "timestamp": "2025-12-15T04:01:20.720092+00:00",
        "meta_object_name": "OSCAR 23",
        "meta_object_id": "1988-033A",
        "meta_epoch": "2025-12-14T07:44:51.781056",
        "meta_mean_motion": 13.27787278,
        "meta_eccentricity": 0.01896581,
        "meta_inclination": 90.3213,
        "meta_ra_of_asc_node": 16.4418,
        "meta_arg_of_pericenter": 175.5215,
        "meta_mean_anomaly": 196.1022,
        "meta_ephemeris_type": 0,
        "meta_classification_type": "U",
        "meta_norad_cat_id": 19070,
        "meta_element_set_no": 999,
        "meta_rev_at_epoch": 82274,
        "meta_bstar": 0.00017997408,
        "meta_mean_motion_dot": 9.8e-07,
        "meta_mean_motion_ddot": 0,
        "tle_line1": "1 19070U 88033A   25348.32282154  .00000098  00000+0  17997-3 0  9990",
        "tle_line2": "2 19070  90.3213  16.4418 0189658 175.5215 196.1022 13.27787278822740"
      },
      "geometry": {
        "type": "Point",
        "coordinates": [
          12.670402982657354,
          85.15773620467806
        ]
      }
    }
  ]
}